{
    "links": {
        "self": "http://www.neowsapp.com/rest/v1/neo/3623612?api_key=iIulBulltgU6a56xZRHN4H3l9WmuAYTsLGpBGhQ2"
    },
    "id": "3623612",
    "neo_reference_id": "3623612",
    "name": "(2013 AD32)",
    "designation": "2013 AD32",
    "nasa_jpl_url": "http://ssd.jpl.nasa.gov/sbdb.cgi?sstr=3623612",
    "absolute_magnitude_h": 25.1,
    "estimated_diameter": {
        "kilometers": {
            "estimated_diameter_min": 0.0253837029,
            "estimated_diameter_max": 0.0567596853
        },
        "meters": {
            "estimated_diameter_min": 25.3837029364,
            "estimated_diameter_max": 56.7596852866
        },
        "miles": {
            "estimated_diameter_min": 0.0157726969,
            "estimated_diameter_max": 0.0352688224
        },
        "feet": {
            "estimated_diameter_min": 83.279867942,
            "estimated_diameter_max": 186.2194458756
        }
    },
    "is_potentially_hazardous_asteroid": false,
    "close_approach_data": [
        {
            "close_approach_date": "2012-12-27",
            "close_approach_date_full": "2012-Dec-27 15:57",
            "epoch_date_close_approach": 1356623820000,
            "relative_velocity": {
                "kilometers_per_second": "14.4657943157",
                "kilometers_per_hour": "52076.859536471",
                "miles_per_hour": "32358.5353047589"
            },
            "miss_distance": {
                "astronomical": "0.0237957341",
                "lunar": "9.2565405649",
                "kilometers": "3559791.136446367",
                "miles": "2211951.6426271846"
            },
            "orbiting_body": "Earth"
        }
    ],
    "orbital_data": {
        "orbit_id": "6",
        "orbit_determination_date": "2017-04-06 08:47:22",
        "first_observation_date": "2013-01-08",
        "last_observation_date": "2013-01-18",
        "data_arc_in_days": 10,
        "observations_used": 24,
        "orbit_uncertainty": "9",
        "minimum_orbit_intersection": ".0109993",
        "jupiter_tisserand_invariant": "3.626",
        "epoch_osculation": "2456302.5",
        "eccentricity": ".6009774576557129",
        "semi_major_axis": "1.969060275401294",
        "inclination": "1.355589608837382",
        "ascending_node_longitude": "355.4137772604805",
        "orbital_period": "1009.222543096081",
        "perihelion_distance": ".7856994371197665",
        "perihelion_argument": "39.02009348833484",
        "aphelion_distance": "3.152421113682821",
        "perihelion_time": "2456248.611806784492",
        "mean_anomaly": "19.2224695041676",
        "mean_motion": ".3567102245809893",
        "equinox": "J2000",
        "orbit_class": {
            "orbit_class_type": "APO",
            "orbit_class_description": "Near-Earth asteroid orbits which cross the Earth’s orbit similar to that of 1862 Apollo",
            "orbit_class_range": "a (semi-major axis) > 1.0 AU; q (perihelion) < 1.017 AU"
        }
    },
    "is_sentry_object": false
}